STARLINK-33547          
1 62283U 24237S   26068.39942571  .00035780  00000+0  13031-2 0  9993
2 62283  42.9953 207.0838 0000982 170.0613 190.0259 15.27589555 71275
BANDWAGON-2 OBJECT D    
1 62380U 24247D   26068.52261193  .00011259  00000+0  40119-3 0  9994
2 62380  44.9954 115.6710 0003488 351.1453   8.9368 15.29076102 67732
